[{"OBJECT_NAME":"ONEWEB-0058","OBJECT_ID":"2020-008AG","EPOCH":"2025-11-08T01:54:15.066720","MEAN_MOTION":13.10370674,"ECCENTRICITY":0.000185,"INCLINATION":87.8794,"RA_OF_ASC_NODE":80.3618,"ARG_OF_PERICENTER":101.3384,"MEAN_ANOMALY":258.7951,"EPHEMERIS_TYPE":0,"CLASSIFICATION_TYPE":"U","NORAD_CAT_ID":45161,"ELEMENT_SET_NO":999,"REV_AT_EPOCH":27946,"BSTAR":-0.0018416,"MEAN_MOTION_DOT":-6.3e-6,"MEAN_MOTION_DDOT":0},{"OBJECT_NAME":"ONEWEB-0059","OBJECT_ID":"2020-008AH","EPOCH":"2025-11-07T22:09:23.429376","MEAN_MOTION":13.10369791,"ECCENTRICITY":0.0001729,"INCLINATION":87.8789,"RA_OF_ASC_NODE":80.3939,"ARG_OF_PERICENTER":101.098,"MEAN_ANOMALY":259.0342,"EPHEMERIS_TYPE":0,"CLASSIFICATION_TYPE":"U","NORAD_CAT_ID":45162,"ELEMENT_SET_NO":999,"REV_AT_EPOCH":27934,"BSTAR":-0.00099792,"MEAN_MOTION_DOT":-3.36e-6,"MEAN_MOTION_DDOT":0},{"OBJECT_NAME":"ONEWEB-0062","OBJECT_ID":"2020-008AJ","EPOCH":"2025-11-08T02:26:21.220800","MEAN_MOTION":13.1037481,"ECCENTRICITY":0.0001952,"INCLINATION":87.8787,"RA_OF_ASC_NODE":80.3339,"ARG_OF_PERICENTER":95.649,"MEAN_ANOMALY":264.486,"EPHEMERIS_TYPE":0,"CLASSIFICATION_TYPE":"U","NORAD_CAT_ID":45163,"ELEMENT_SET_NO":999,"REV_AT_EPOCH":27923,"BSTAR":-1.2836e-5,"MEAN_MOTION_DOT":8.0e-8,"MEAN_MOTION_DDOT":0},{"OBJECT_NAME":"ONEWEB-0065","OBJECT_ID":"2020-008AK","EPOCH":"2025-11-07T22:17:43.884096","MEAN_MOTION":13.10373483,"ECCENTRICITY":0.0001212,"INCLINATION":87.8796,"RA_OF_ASC_NODE":80.396,"ARG_OF_PERICENTER":91.031,"MEAN_ANOMALY":269.0956,"EPHEMERIS_TYPE":0,"CLASSIFICATION_TYPE":"U","NORAD_CAT_ID":45164,"ELEMENT_SET_NO":999,"REV_AT_EPOCH":27890,"BSTAR":-0.0015316,"MEAN_MOTION_DOT":-5.22e-6,"MEAN_MOTION_DDOT":0},{"OBJECT_NAME":"ONEWEB-0066","OBJECT_ID":"2020-020A","EPOCH":"2025-11-08T00:55:39.111168","MEAN_MOTION":13.11416061,"ECCENTRICITY":0.0001544,"INCLINATION":87.8871,"RA_OF_ASC_NODE":65.1008,"ARG_OF_PERICENTER":111.5092,"MEAN_ANOMALY":248.62,"EPHEMERIS_TYPE":0,"CLASSIFICATION_TYPE":"U","NORAD_CAT_ID":45424,"ELEMENT_SET_NO":999,"REV_AT_EPOCH":27369,"BSTAR":-0.0018009,"MEAN_MOTION_DOT":-6.26e-6,"MEAN_MOTION_DDOT":0},{"OBJECT_NAME":"ONEWEB-0067","OBJECT_ID":"2020-020B","EPOCH":"2025-11-07T20:19:58.594080","MEAN_MOTION":13.11417036,"ECCENTRICITY":0.0001506,"INCLINATION":87.8862,"RA_OF_ASC_NODE":65.0412,"ARG_OF_PERICENTER":104.7193,"MEAN_ANOMALY":255.4102,"EPHEMERIS_TYPE":0,"CLASSIFICATION_TYPE":"U","NORAD_CAT_ID":45425,"ELEMENT_SET_NO":999,"REV_AT_EPOCH":27372,"BSTAR":0.0016348,"MEAN_MOTION_DOT":5.92e-6,"MEAN_MOTION_DDOT":0},{"OBJECT_NAME":"ONEWEB-0080","OBJECT_ID":"2020-020C","EPOCH":"2025-11-07T20:33:12.718080","MEAN_MOTION":13.1141706,"ECCENTRICITY":0.0001909,"INCLINATION":87.8864,"RA_OF_ASC_NODE":65.1382,"ARG_OF_PERICENTER":105.6372,"MEAN_ANOMALY":254.4967,"EPHEMERIS_TYPE":0,"CLASSIFICATION_TYPE":"U","NORAD_CAT_ID":45426,"ELEMENT_SET_NO":999,"REV_AT_EPOCH":27369,"BSTAR":0.0017053,"MEAN_MOTION_DOT":6.17e-6,"MEAN_MOTION_DDOT":0},{"OBJECT_NAME":"ONEWEB-0090","OBJECT_ID":"2020-020D","EPOCH":"2025-11-07T21:01:15.543840","MEAN_MOTION":13.11415382,"ECCENTRICITY":0.0001646,"INCLINATION":87.8864,"RA_OF_ASC_NODE":65.1348,"ARG_OF_PERICENTER":100.3634,"MEAN_ANOMALY":259.768,"EPHEMERIS_TYPE":0,"CLASSIFICATION_TYPE":"U","NORAD_CAT_ID":45427,"ELEMENT_SET_NO":999,"REV_AT_EPOCH":27366,"BSTAR":-0.00059114,"MEAN_MOTION_DOT":-1.97e-6,"MEAN_MOTION_DDOT":0},{"OBJECT_NAME":"ONEWEB-0061","OBJECT_ID":"2020-020E","EPOCH":"2025-11-08T01:27:12.333024","MEAN_MOTION":13.11418266,"ECCENTRICITY":0.0001648,"INCLINATION":87.8868,"RA_OF_ASC_NODE":65.0787,"ARG_OF_PERICENTER":103.4314,"MEAN_ANOMALY":256.6998,"EPHEMERIS_TYPE":0,"CLASSIFICATION_TYPE":"U","NORAD_CAT_ID":45428,"ELEMENT_SET_NO":999,"REV_AT_EPOCH":27364,"BSTAR":0.00014487,"MEAN_MOTION_DOT":6.4e-7,"MEAN_MOTION_DDOT":0},{"OBJECT_NAME":"ONEWEB-0081","OBJECT_ID":"2020-020F","EPOCH":"2025-11-08T01:00:32.066784","MEAN_MOTION":13.11417287,"ECCENTRICITY":0.0001518,"INCLINATION":87.886,"RA_OF_ASC_NODE":65.0992,"ARG_OF_PERICENTER":109.7212,"MEAN_ANOMALY":250.4079,"EPHEMERIS_TYPE":0,"CLASSIFICATION_TYPE":"U","NORAD_CAT_ID":45429,"ELEMENT_SET_NO":999,"REV_AT_EPOCH":27375,"BSTAR":-0.0013956,"MEAN_MOTION_DOT":-4.82e-6,"MEAN_MOTION_DDOT":0},{"OBJECT_NAME":"ONEWEB-0069","OBJECT_ID":"2020-020G","EPOCH":"2025-11-07T21:04:55.590816","MEAN_MOTION":13.11415605,"ECCENTRICITY":0.000154,"INCLINATION":87.8869,"RA_OF_ASC_NODE":65.1288,"ARG_OF_PERICENTER":103.8321,"MEAN_ANOMALY":256.2979,"EPHEMERIS_TYPE":0,"CLASSIFICATION_TYPE":"U","NORAD_CAT_ID":45430,"ELEMENT_SET_NO":999,"REV_AT_EPOCH":27366,"BSTAR":-0.00074349,"MEAN_MOTION_DOT":-2.51e-6,"MEAN_MOTION_DDOT":0},{"OBJECT_NAME":"ONEWEB-0031","OBJECT_ID":"2020-020H","EPOCH":"2025-11-08T01:54:15.559200","MEAN_MOTION":13.11418484,"ECCENTRICITY":0.0001826,"INCLINATION":87.8857,"RA_OF_ASC_NODE":65.1138,"ARG_OF_PERICENTER":98.6325,"MEAN_ANOMALY":261.501,"EPHEMERIS_TYPE":0,"CLASSIFICATION_TYPE":"U","NORAD_CAT_ID":45431,"ELEMENT_SET_NO":999,"REV_AT_EPOCH":27367,"BSTAR":0.0017362,"MEAN_MOTION_DOT":6.28e-6,"MEAN_MOTION_DDOT":0},{"OBJECT_NAME":"ONEWEB-0027","OBJECT_ID":"2020-020J","EPOCH":"2025-11-08T00:40:07.490208","MEAN_MOTION":13.17650783,"ECCENTRICITY":0.0001873,"INCLINATION":87.9131,"RA_OF_ASC_NODE":49.8159,"ARG_OF_PERICENTER":89.7763,"MEAN_ANOMALY":270.3583,"EPHEMERIS_TYPE":0,"CLASSIFICATION_TYPE":"U","NORAD_CAT_ID":45432,"ELEMENT_SET_NO":999,"REV_AT_EPOCH":27723,"BSTAR":4.5229e-5,"MEAN_MOTION_DOT":3.0e-7,"MEAN_MOTION_DDOT":0},{"OBJECT_NAME":"ONEWEB-0064","OBJECT_ID":"2020-020K","EPOCH":"2025-11-08T01:51:49.284000","MEAN_MOTION":13.11418579,"ECCENTRICITY":0.0001727,"INCLINATION":87.8856,"RA_OF_ASC_NODE":65.1044,"ARG_OF_PERICENTER":96.5515,"MEAN_ANOMALY":263.5809,"EPHEMERIS_TYPE":0,"CLASSIFICATION_TYPE":"U","NORAD_CAT_ID":45433,"ELEMENT_SET_NO":999,"REV_AT_EPOCH":27370,"BSTAR":0.0014603,"MEAN_MOTION_DOT":5.3e-6,"MEAN_MOTION_DDOT":0},{"OBJECT_NAME":"ONEWEB-0018","OBJECT_ID":"2020-020L","EPOCH":"2025-11-07T21:08:33.951264","MEAN_MOTION":13.11414322,"ECCENTRICITY":0.0001751,"INCLINATION":87.8863,"RA_OF_ASC_NODE":65.1315,"ARG_OF_PERICENTER":105.8592,"MEAN_ANOMALY":254.2729,"EPHEMERIS_TYPE":0,"CLASSIFICATION_TYPE":"U","NORAD_CAT_ID":45434,"ELEMENT_SET_NO":999,"REV_AT_EPOCH":27362,"BSTAR":-0.0014389,"MEAN_MOTION_DOT":-4.97e-6,"MEAN_MOTION_DDOT":0},{"OBJECT_NAME":"ONEWEB-0083","OBJECT_ID":"2020-020M","EPOCH":"2025-11-07T20:55:09.898176","MEAN_MOTION":13.11418031,"ECCENTRICITY":0.0001617,"INCLINATION":87.8865,"RA_OF_ASC_NODE":65.1227,"ARG_OF_PERICENTER":101.631,"MEAN_ANOMALY":258.4999,"EPHEMERIS_TYPE":0,"CLASSIFICATION_TYPE":"U","NORAD_CAT_ID":45435,"ELEMENT_SET_NO":999,"REV_AT_EPOCH":27366,"BSTAR":-6.8507e-5,"MEAN_MOTION_DOT":-1.2e-7,"MEAN_MOTION_DDOT":0},{"OBJECT_NAME":"ONEWEB-0095","OBJECT_ID":"2020-020N","EPOCH":"2025-11-08T00:21:40.821120","MEAN_MOTION":13.11413714,"ECCENTRICITY":0.0001352,"INCLINATION":87.8855,"RA_OF_ASC_NODE":65.1076,"ARG_OF_PERICENTER":74.8831,"MEAN_ANOMALY":285.2446,"EPHEMERIS_TYPE":0,"CLASSIFICATION_TYPE":"U","NORAD_CAT_ID":45436,"ELEMENT_SET_NO":999,"REV_AT_EPOCH":27368,"BSTAR":0.00050511,"MEAN_MOTION_DOT":1.92e-6,"MEAN_MOTION_DDOT":0}]
