ONEWEB-0058             
1 45161U 20008AG  25312.07934105 -.00000630  00000+0 -18416-2 0  9991
2 45161  87.8794  80.3618 0001850 101.3384 258.7951 13.10370674279469
ONEWEB-0059             
1 45162U 20008AH  25311.92318784 -.00000336  00000+0 -99792-3 0  9994
2 45162  87.8789  80.3939 0001729 101.0980 259.0342 13.10369791279347
ONEWEB-0062             
1 45163U 20008AJ  25312.10163450  .00000008  00000+0 -12836-4 0  9994
2 45163  87.8787  80.3339 0001952  95.6490 264.4860 13.10374810279233
ONEWEB-0065             
1 45164U 20008AK  25311.92898014 -.00000522  00000+0 -15316-2 0  9991
2 45164  87.8796  80.3960 0001212  91.0310 269.0956 13.10373483278909
ONEWEB-0066             
1 45424U 20020A   25312.03864712 -.00000626  00000+0 -18009-2 0  9992
2 45424  87.8871  65.1008 0001544 111.5092 248.6200 13.11416061273696
ONEWEB-0067             
1 45425U 20020B   25311.84720595  .00000592  00000+0  16348-2 0  9995
2 45425  87.8862  65.0412 0001506 104.7193 255.4102 13.11417036273723
ONEWEB-0080             
1 45426U 20020C   25311.85639720  .00000617  00000+0  17053-2 0  9998
2 45426  87.8864  65.1382 0001909 105.6372 254.4967 13.11417060273690
ONEWEB-0090             
1 45427U 20020D   25311.87587435 -.00000197  00000+0 -59114-3 0  9996
2 45427  87.8864  65.1348 0001646 100.3634 259.7680 13.11415382273666
ONEWEB-0061             
1 45428U 20020E   25312.06055941  .00000064  00000+0  14487-3 0  9996
2 45428  87.8868  65.0787 0001648 103.4314 256.6998 13.11418266273648
ONEWEB-0081             
1 45429U 20020F   25312.04203781 -.00000482  00000+0 -13956-2 0  9997
2 45429  87.8860  65.0992 0001518 109.7212 250.4079 13.11417287273757
ONEWEB-0069             
1 45430U 20020G   25311.87842119 -.00000251  00000+0 -74349-3 0  9991
2 45430  87.8869  65.1288 0001540 103.8321 256.2979 13.11415605273663
ONEWEB-0031             
1 45431U 20020H   25312.07934675  .00000628  00000+0  17362-2 0  9991
2 45431  87.8857  65.1138 0001826  98.6325 261.5010 13.11418484273671
ONEWEB-0027             
1 45432U 20020J   25312.02786447  .00000030  00000+0  45229-4 0  9991
2 45432  87.9131  49.8159 0001873  89.7763 270.3583 13.17650783277234
ONEWEB-0064             
1 45433U 20020K   25312.07765375  .00000530  00000+0  14603-2 0  9999
2 45433  87.8856  65.1044 0001727  96.5515 263.5809 13.11418579273703
ONEWEB-0018             
1 45434U 20020L   25311.88094851 -.00000497  00000+0 -14389-2 0  9997
2 45434  87.8863  65.1315 0001751 105.8592 254.2729 13.11414322273620
ONEWEB-0083             
1 45435U 20020M   25311.87164234 -.00000012  00000+0 -68507-4 0  9996
2 45435  87.8865  65.1227 0001617 101.6310 258.4999 13.11418031273668
ONEWEB-0095             
1 45436U 20020N   25312.01505580  .00000192  00000+0  50511-3 0  9999
2 45436  87.8855  65.1076 0001352  74.8831 285.2446 13.11413714273685
